NORAD_CAT_ID,OBJECT_NAME,OBJECT_TYPE,EPOCH,MEAN_MOTION,ECCENTRICITY,INCLINATION,RA_OF_ASC_NODE,ARG_OF_PERICENTER,MEAN_ANOMALY,BSTAR,MEAN_MOTION_DOT,MEAN_MOTION_DDOT,TLE_LINE0,TLE_LINE1,TLE_LINE2,SEMIMAJOR_AXIS,PERIOD,APOGEE,PERIGEE,DECAYED
53171.0,STARLINK-4052,PAYLOAD,2024-02-15 00:19:26,15.08847468,0.0001284,53.2158,277.2689,101.9444,258.1692,0.00019094,2.753e-05,0.0,0 STARLINK-4052,1 53171U 22083AR  24046.01350077  .00002753  00000-0  19094-3 0  9994,2 53171  53.2158 277.2689 0001284 101.9444 258.1692 15.08847468 88631,6917.858,95.437,540.611,538.834,0.0
53171.0,STARLINK-4052,PAYLOAD,2024-02-15 08:16:22,15.08837328,0.0001575,53.2159,275.7801,91.975,268.1423,3.4137e-05,2.55e-06,0.0,0 STARLINK-4052,1 53171U 22083AR  24046.34470650  .00000255  00000-0  34137-4 0  9991,2 53171  53.2159 275.7801 0001575  91.9750 268.1423 15.08837328 88684,6917.889,95.438,540.843,538.664,0.0
53171.0,STARLINK-4052,PAYLOAD,2024-02-15 22:34:51,15.08837009,0.000133,53.215,273.1048,89.1318,270.9827,4.8065e-06,-2.11e-06,0.0,0 STARLINK-4052,1 53171U 22083AR  24046.94086806 -.00000211  00000-0  48065-5 0  9992,2 53171  53.2150 273.1048 0001330  89.1318 270.9827 15.08837009 88133,6917.89,95.438,540.675,538.834,0.0
53171.0,STARLINK-4052,PAYLOAD,2024-02-16 08:07:09,15.08835377,0.0001347,53.215,271.3174,78.2932,281.8212,-2.0861e-05,-6.2e-06,0.0,0 STARLINK-4052,1 53171U 22083AR  24047.33831006 -.00000620  00000-0 -20861-4 0  9994,2 53171  53.2150 271.3174 0001347  78.2932 281.8212 15.08835377 88193,6917.895,95.438,540.691,538.828,0.0
53171.0,STARLINK-4052,PAYLOAD,2024-02-16 19:14:52,15.08832213,0.0001292,53.2154,269.2349,83.6131,276.5009,6.9275e-05,8.15e-06,0.0,0 STARLINK-4052,1 53171U 22083AR  24047.80199384  .00000815  00000-0  69275-4 0  9998,2 53171  53.2154 269.2349 0001292  83.6131 276.5009 15.08832213 88907,6917.904,95.438,540.663,538.875,0.0
53171.0,STARLINK-4052,PAYLOAD,2024-02-16 22:25:38,15.08840365,0.0001308,53.2162,268.6405,91.2136,268.9006,4.7994e-06,-2.12e-06,0.0,0 STARLINK-4052,1 53171U 22083AR  24047.93447260 -.00000212  00000-0  47994-5 0  9998,2 53171  53.2162 268.6405 0001308  91.2136 268.9006 15.08840365 88280,6917.879,95.438,540.649,538.839,0.0
53171.0,STARLINK-4052,PAYLOAD,2024-02-17 00:01:01,15.08842629,0.0001265,53.2161,268.3432,89.517,270.5967,1.578e-05,-3.7e-07,0.0,0 STARLINK-4052,1 53171U 22083AR  24048.00071070 -.00000037  00000-0  15780-4 0  9991,2 53171  53.2161 268.3432 0001265  89.5170 270.5967 15.08842629 88938,6917.872,95.437,540.612,538.862,0.0
53171.0,STARLINK-4052,PAYLOAD,2024-02-17 07:57:56,15.08846388,0.000132,53.2162,266.8568,86.359,273.7553,5.9437e-05,6.58e-06,0.0,0 STARLINK-4052,1 53171U 22083AR  24048.33190782  .00000658  00000-0  59437-4 0  9994,2 53171  53.2162 266.8568 0001320  86.3590 273.7553 15.08846388 88342,6917.861,95.437,540.639,538.813,0.0
53171.0,STARLINK-4052,PAYLOAD,2024-02-17 20:41:02,15.0884512,0.0001247,53.2146,264.4778,84.4067,275.7067,0.00025819,3.824e-05,0.0,0 STARLINK-4052,1 53171U 22083AR  24048.86182936  .00003824  00000-0  25819-3 0  9998,2 53171  53.2146 264.4778 0001247  84.4067 275.7067 15.08845120 88421,6917.865,95.437,540.592,538.867,0.0
53171.0,STARLINK-4052,PAYLOAD,2024-02-18 07:48:43,15.08848476,0.0001227,53.2147,262.3964,84.4274,275.6858,0.0002593,3.842e-05,0.0,0 STARLINK-4052,1 53171U 22083AR  24049.32550730  .00003842  00000-0  25930-3 0  9995,2 53171  53.2147 262.3964 0001227  84.4274 275.6858 15.08848476 89137,6917.854,95.437,540.568,538.871,0.0
53171.0,STARLINK-4052,PAYLOAD,2024-02-18 20:31:49,15.08843589,0.0001297,53.2156,260.0152,93.5663,266.5477,0.00015311,2.15e-05,0.0,0 STARLINK-4052,1 53171U 22083AR  24049.85542851  .00002150  00000-0  15311-3 0  9991,2 53171  53.2156 260.0152 0001297  93.5663 266.5477 15.08843589 89216,6917.869,95.437,540.632,538.837,0.0
53171.0,STARLINK-4052,PAYLOAD,2024-02-18 23:42:35,15.08846487,0.0001352,53.2151,259.4206,95.6616,264.4531,0.00011462,1.537e-05,0.0,0 STARLINK-4052,1 53171U 22083AR  24049.98790659  .00001537  00000-0  11462-3 0  9997,2 53171  53.2151 259.4206 0001352  95.6616 264.4531 15.08846487 88594,6917.861,95.437,540.661,538.79,0.0
53171.0,STARLINK-4052,PAYLOAD,2024-02-19 20:22:36,15.08839241,0.0001337,53.2158,255.5556,94.8671,265.2473,-6.1457e-06,-3.86e-06,0.0,0 STARLINK-4052,1 53171U 22083AR  24050.84903168 -.00000386  00000-0 -61457-5 0  9999,2 53171  53.2158 255.5556 0001337  94.8671 265.2473 15.08839241 89361,6917.883,95.438,540.673,538.823,0.0
53171.0,STARLINK-4052,PAYLOAD,2024-02-19 23:33:22,15.08839351,0.0001272,53.216,254.9606,92.8136,267.3002,-2.0201e-05,-6.09e-06,0.0,0 STARLINK-4052,1 53171U 22083AR  24050.98151128 -.00000609  00000-0 -20201-4 0  9994,2 53171  53.2160 254.9606 0001272  92.8136 267.3002 15.08839351 88749,6917.882,95.438,540.627,538.867,0.0
53171.0,STARLINK-4052,PAYLOAD,2024-02-20 20:13:23,15.08837144,0.0001332,53.2159,251.0973,96.6987,263.4156,2.8895e-05,1.72e-06,0.0,0 STARLINK-4052,1 53171U 22083AR  24051.84263319  .00000172  00000-0  28895-4 0  9996,2 53171  53.2159 251.0973 0001332  96.6987 263.4156 15.08837144 88874,6917.889,95.438,540.676,538.833,0.0
53171.0,STARLINK-4052,PAYLOAD,2024-02-21 05:45:42,15.08842625,0.0001335,53.2163,249.3133,95.5207,264.5937,1.3651e-05,-7.1e-07,0.0,0 STARLINK-4052,1 53171U 22083AR  24052.24007022 -.00000071  00000-0  13651-4 0  9991,2 53171  53.2163 249.3133 0001335  95.5207 264.5937 15.08842625 89570,6917.872,95.437,540.661,538.814,0.0
53171.0,STARLINK-4052,PAYLOAD,2024-02-21 13:42:37,15.08838809,0.0001326,53.216,247.8263,98.1635,261.9508,0.00010404,1.368e-05,0.0,0 STARLINK-4052,1 53171U 22083AR  24052.57127070  .00001368  00000-0  10404-3 0  9994,2 53171  53.2160 247.8263 0001326  98.1635 261.9508 15.08838809 88986,6917.884,95.438,540.666,538.832,0.0
53171.0,STARLINK-4052,PAYLOAD,2024-02-21 20:04:10,15.08841657,0.0001346,53.2162,246.6371,98.5963,261.5182,0.00012417,1.689e-05,0.0,0 STARLINK-4052,1 53171U 22083AR  24052.83622883  .00001689  00000-0  12417-3 0  9997,2 53171  53.2162 246.6371 0001346  98.5963 261.5182 15.08841657 89020,6917.875,95.437,540.671,538.809,0.0
53171.0,STARLINK-4052,PAYLOAD,2024-02-22 19:54:57,15.08840764,0.0001307,53.2161,242.1769,99.3625,260.7515,7.4657e-05,9e-06,0.0,0 STARLINK-4052,1 53171U 22083AR  24053.82983153  .00000900  00000-0  74657-4 0  9997,2 53171  53.2161 242.1769 0001307  99.3625 260.7515 15.08840764 89818,6917.878,95.438,540.647,538.839,0.0
53171.0,STARLINK-4052,PAYLOAD,2024-02-23 19:45:44,15.08838795,0.0001275,53.2158,237.7162,92.5335,267.5803,-7.9233e-06,-4.14e-06,0.0,0 STARLINK-4052,1 53171U 22083AR  24054.82343664 -.00000414  00000-0 -79233-5 0  9993,2 53171  53.2158 237.7162 0001275  92.5335 267.5803 15.08838795 89960,6917.884,95.438,540.631,538.867,0.0
53171.0,STARLINK-4052,PAYLOAD,2024-02-23 21:21:07,15.08841045,0.0001281,53.2158,237.4186,93.1772,266.9367,7.3054e-06,-1.72e-06,0.0,0 STARLINK-4052,1 53171U 22083AR  24054.88967448 -.00000172  00000-0  73054-5 0  9996,2 53171  53.2158 237.4186 0001281  93.1772 266.9367 15.08841045 89333,6917.877,95.437,540.628,538.856,0.0
53171.0,STARLINK-4052,PAYLOAD,2024-02-24 11:39:36,15.08844901,0.0001354,53.2164,234.7407,88.3683,271.7464,-6.1127e-05,-1.261e-05,0.0,0 STARLINK-4052,1 53171U 22083AR  24055.48583717 -.00001261  00000-0 -61127-4 0  9994,2 53171  53.2164 234.7407 0001354  88.3683 271.7464 15.08844901 89420,6917.865,95.437,540.667,538.794,0.0
53171.0,STARLINK-4052,PAYLOAD,2024-02-24 21:11:54,15.08847206,0.0001347,53.216,232.9577,91.2059,268.9087,7.1667e-05,8.53e-06,0.0,0 STARLINK-4052,1 53171U 22083AR  24055.88326999  .00000853  00000-0  71667-4 0  9999,2 53171  53.2160 232.9577 0001347  91.2059 268.9087 15.08847206 89482,6917.858,95.437,540.655,538.792,0.0
53171.0,STARLINK-4052,PAYLOAD,2024-02-25 11:30:22,15.08848037,0.0001461,53.2165,230.2818,81.873,278.2428,0.00013175,1.81e-05,0.0,0 STARLINK-4052,1 53171U 22083AR  24056.47942716  .00001810  00000-0  13175-3 0  9999,2 53171  53.2165 230.2818 0001461  81.8730 278.2428 15.08848037 89570,6917.856,95.437,540.732,538.71,0.0
53171.0,STARLINK-4052,PAYLOAD,2024-02-25 17:51:54,15.08857812,0.0001192,53.2134,229.0905,92.3563,267.7565,0.00018193,2.61e-05,0.0,0 STARLINK-4052,1 53171U 22083AR  24056.74437708  .00002610  00000-0  18193-3 0  9993,2 53171  53.2134 229.0905 0001192  92.3563 267.7565 15.08857812 90254,6917.826,95.436,540.516,538.866,0.0
53171.0,STARLINK-4052,PAYLOAD,2024-02-26 14:31:56,15.08836291,0.0001277,53.2165,225.2283,89.9899,270.124,-1.3838e-05,-5.08e-06,0.0,0 STARLINK-4052,1 53171U 22083AR  24057.60551788 -.00000508  00000-0 -13838-4 0  9992,2 53171  53.2165 225.2283 0001277  89.9899 270.1240 15.08836291 89741,6917.892,95.438,540.64,538.873,0.0
53171.0,STARLINK-4052,PAYLOAD,2024-02-26 17:42:43,15.08834123,0.0001229,53.2141,224.6297,72.3359,287.7767,-5.8864e-05,-1.224e-05,0.0,0 STARLINK-4052,1 53171U 22083AR  24057.73800105 -.00001224  00000-0 -58864-4 0  9990,2 53171  53.2141 224.6297 0001229  72.3359 287.7767 15.08834123 90402,6917.898,95.438,540.614,538.913,0.0
53171.0,STARLINK-4052,PAYLOAD,2024-02-27 11:11:57,15.08843598,0.0001039,53.2143,221.3581,68.6848,291.4255,-0.0001001,-1.881e-05,0.0,0 STARLINK-4052,1 53171U 22083AR  24058.46663736 -.00001881  00000-0 -10010-3 0  9997,2 53171  53.2143 221.3581 0001039  68.6848 291.4255 15.08843598 90516,6917.869,95.437,540.453,539.016,0.0
53171.0,STARLINK-4052,PAYLOAD,2024-02-27 14:22:43,15.08843787,0.0001103,53.2157,220.7684,91.3542,268.7576,-4.5601e-05,-1.014e-05,0.0,0 STARLINK-4052,1 53171U 22083AR  24058.59911488 -.00001014  00000-0 -45601-4 0  9994,2 53171  53.2157 220.7684 0001103  91.3542 268.7576 15.08843787 89896,6917.869,95.437,540.497,538.971,0.0
53171.0,STARLINK-4052,PAYLOAD,2024-02-27 20:44:15,15.0885519,0.0001121,53.2152,219.5729,93.4413,266.6707,8.8252e-06,-1.47e-06,0.0,0 STARLINK-4052,1 53171U 22083AR  24058.86406501 -.00000147  00000-0  88252-5 0  9994,2 53171  53.2152 219.5729 0001121  93.4413 266.6707 15.08855190 89936,6917.834,95.437,540.474,538.923,0.0
